{
    "links": {
        "self": "http://www.neowsapp.com/rest/v1/neo/54087865?api_key=iIulBulltgU6a56xZRHN4H3l9WmuAYTsLGpBGhQ2"
    },
    "id": "54087865",
    "neo_reference_id": "54087865",
    "name": "(2020 VF6)",
    "designation": "2020 VF6",
    "nasa_jpl_url": "http://ssd.jpl.nasa.gov/sbdb.cgi?sstr=54087865",
    "absolute_magnitude_h": 25.017,
    "estimated_diameter": {
        "kilometers": {
            "estimated_diameter_min": 0.0263727232,
            "estimated_diameter_max": 0.0589712018
        },
        "meters": {
            "estimated_diameter_min": 26.3727232018,
            "estimated_diameter_max": 58.9712018311
        },
        "miles": {
            "estimated_diameter_min": 0.0163872454,
            "estimated_diameter_max": 0.0366429947
        },
        "feet": {
            "estimated_diameter_min": 86.5246851895,
            "estimated_diameter_max": 193.4750778155
        }
    },
    "is_potentially_hazardous_asteroid": false,
    "close_approach_data": [
        {
            "close_approach_date": "2018-11-16",
            "close_approach_date_full": "2018-Nov-16 19:54",
            "epoch_date_close_approach": 1542398040000,
            "relative_velocity": {
                "kilometers_per_second": "24.6028897011",
                "kilometers_per_hour": "88570.4029239071",
                "miles_per_hour": "55034.2039723577"
            },
            "miss_distance": {
                "astronomical": "0.2137168942",
                "lunar": "83.1358718438",
                "kilometers": "31971592.155335354",
                "miles": "19866226.1561777252"
            },
            "orbiting_body": "Earth"
        },
        {
            "close_approach_date": "2020-11-28",
            "close_approach_date_full": "2020-Nov-28 05:58",
            "epoch_date_close_approach": 1606543080000,
            "relative_velocity": {
                "kilometers_per_second": "17.9689564183",
                "kilometers_per_hour": "64688.2431058703",
                "miles_per_hour": "40194.7586120892"
            },
            "miss_distance": {
                "astronomical": "0.0216339648",
                "lunar": "8.4156123072",
                "kilometers": "3236395.053734976",
                "miles": "2011002.6349596288"
            },
            "orbiting_body": "Earth"
        }
    ],
    "orbital_data": {
        "orbit_id": "7",
        "orbit_determination_date": "2020-11-25 05:21:38",
        "first_observation_date": "2020-11-14",
        "last_observation_date": "2020-11-24",
        "data_arc_in_days": 10,
        "observations_used": 56,
        "orbit_uncertainty": "8",
        "minimum_orbit_intersection": ".00970984",
        "jupiter_tisserand_invariant": "4.106",
        "epoch_osculation": "2459172.5",
        "eccentricity": ".5996963111660467",
        "semi_major_axis": "1.606787784206842",
        "inclination": "12.60397111737846",
        "ascending_node_longitude": "242.6204104299129",
        "orbital_period": "743.9370852429798",
        "perihelion_distance": ".6432030771913329",
        "perihelion_argument": "268.796810451673",
        "aphelion_distance": "2.570372491222351",
        "perihelion_time": "2459230.980050187983",
        "mean_anomaly": "331.7008084617831",
        "mean_motion": ".4839118887081952",
        "equinox": "J2000",
        "orbit_class": {
            "orbit_class_type": "APO",
            "orbit_class_description": "Near-Earth asteroid orbits which cross the Earth’s orbit similar to that of 1862 Apollo",
            "orbit_class_range": "a (semi-major axis) > 1.0 AU; q (perihelion) < 1.017 AU"
        }
    },
    "is_sentry_object": false
}